{"type": "FeatureCollection", "features": [{"type": "Feature", "properties": {"id": "santa-ines", "nombre": "Humedal Santa Inés"}, "geometry": {"type": "MultiPolygon", "coordinates": [[[[-73.25647643249147, -39.81034209433171], [-73.25513418087588, -39.810573528879395], [-73.25513246831238, -39.81064124610341], [-73.25526164134551, -39.81099158152977], [-73.2553999346889, -39.811477539923914], [-73.25532938754031, -39.811786161062734], [-73.25494132738723, -39.81224484705743], [-73.25471691436444, -39.81243502214924], [-73.25451376363543, -39.81252874108233], [-73.25411348773142, -39.81272594612058], [-73.25387628199107, -39.8129256045659], [-73.25360957875789, -39.8132990145682], [-73.25345451871968, -39.813475714905444], [-73.25317107682433, -39.81376661252519], [-73.25267305684795, -39.81435428172996], [-73.25255513483853, -39.81455089534858], [-73.25238803782551, -39.81495483551938], [-73.25237625140394, -39.81517240304048], [-73.25237492617154, -39.815472387417046], [-73.25227936330273, -39.81567095918121], [-73.25349075552597, -39.81572230877174], [-73.25348547361838, -39.81550705439031], [-73.25328844344718, -39.81532646730704], [-73.25334278534977, -39.81516276706322], [-73.25356755154547, -39.81471130596036], [-73.2537256752307, -39.814413682119394], [-73.2541737841877, -39.81406235746283], [-73.25472940201912, -39.81392555502882], [-73.25472940201912, -39.81392555502882], [-73.25519525097127, -39.81386482018589], [-73.25556123477305, -39.81378322655065], [-73.25599067236477, -39.81367355309197], [-73.25627153479743, -39.813484224158024], [-73.25657919523739, -39.81322755433178], [-73.25668223712083, -39.81312264974241], [-73.25674715758718, -39.81303652729974], [-73.25694859601987, -39.81301052169055], [-73.2574009156541, -39.812988284891404], [-73.25770368351048, -39.812925089882626], [-73.25815697943885, -39.81286415451703], [-73.25840834890151, -39.81284857368932], [-73.25880258593763, -39.81264158553005], [-73.2586822734001, -39.8124365505572], [-73.25850095122587, -39.812162856543665], [-73.25828053350608, -39.81194664065539], [-73.25808154111539, -39.811875909639724], [-73.2580687529934, -39.8118853951745], [-73.25786707393345, -39.811921076715656], [-73.25775369044992, -39.811938728951226], [-73.25735354906395, -39.81213110851756], [-73.25735354906395, -39.81213110851756], [-73.25718925633129, -39.812177028085884], [-73.25699360357109, -39.81222247620647], [-73.25696814910556, -39.8122366100763], [-73.25678528441341, -39.81227257243082], [-73.25672244252294, -39.812276466819334], [-73.25657118192497, -39.81230322622088], [-73.25644500910073, -39.812330362515944], [-73.25640134979264, -39.81232002870601], [-73.25633578109398, -39.812183557164026], [-73.25633675908117, -39.81214486159305], [-73.25634535373875, -39.8120530538886], [-73.2563341545756, -39.811999658921586], [-73.2563190062149, -39.811854267690364], [-73.25628528666452, -39.811698919722986], [-73.25623792318181, -39.81158691570081], [-73.25608060010236, -39.81135712776783], [-73.25610911092673, -39.8112220704247], [-73.25618742972529, -39.8111022781939], [-73.25621015737953, -39.81094777874122], [-73.25623989024531, -39.81076435187525], [-73.25647643249147, -39.81034209433171]]]]}}, {"type": "Feature", "properties": {"id": "humedal-cancha", "nombre": "Humedal La Cancha"}, "geometry": {"type": "MultiPolygon", "coordinates": [[[[-73.26235962862772, -39.810420693893214], [-73.26234440495523, -39.81052691918522], [-73.26226548825628, -39.8106709006453], [-73.26201667975508, -39.81108330885485], [-73.26191961267084, -39.81144960232784], [-73.26167933020257, -39.81152342240214], [-73.26137974100905, -39.811460867060084], [-73.26131750950967, -39.81144057916147], [-73.2610186525361, -39.81134900114426], [-73.26078056433053, -39.811335754087544], [-73.26042494774127, -39.81150461798872], [-73.25996946662924, -39.81165262768107], [-73.25976412892896, -39.811833421231064], [-73.25971175724469, -39.81191973367716], [-73.25963112517648, -39.81213143052787], [-73.25949192171126, -39.812177729789106], [-73.25925139017411, -39.812261218620954], [-73.25898528189126, -39.81236367821349], [-73.25904189872205, -39.81260646720471], [-73.25923430365508, -39.81293839210923], [-73.25952403761116, -39.812894351874306], [-73.25978990319672, -39.81280156499098], [-73.26009340019056, -39.812709341944675], [-73.26040992827726, -39.81259795837783], [-73.26073899936584, -39.81248676200535], [-73.26100461798285, -39.81240364617743], [-73.2613078678967, -39.812321093791205], [-73.26147288977933, -39.81224614658032], [-73.26170136228438, -39.812143117264824], [-73.2618781961002, -39.81209737919511], [-73.26221810077729, -39.81205408392743], [-73.26231869588263, -39.81204591332194], [-73.26247019759124, -39.81200947243778], [-73.26271218619104, -39.81186793326737], [-73.26277758519404, -39.81176245938986], [-73.26289437730858, -39.8116093672261], [-73.26304806972884, -39.81148586020519], [-73.26333280041472, -39.81114173061487], [-73.26340379815575, -39.81081375592323], [-73.26333730198299, -39.81046436765018], [-73.26314050005983, -39.81030657989751], [-73.26275018643477, -39.810358800595466], [-73.26235962862772, -39.810420693893214]]]]}}, {"type": "Feature", "properties": {"id": "los-pelues", "nombre": "Humedal Los Pelúes"}, "geometry": {"type": "MultiPolygon", "coordinates": [[[[-73.26269097284194, -39.808848211651885], [-73.26265535176547, -39.809017035792614], [-73.26271502397684, -39.809138899214965], [-73.26288588235933, -39.80933017071451], [-73.26294592055328, -39.8094375231297], [-73.26291705859073, -39.80958709339524], [-73.26297106883493, -39.809684677949974], [-73.26308152508253, -39.809783107676026], [-73.26319910571767, -39.809847772443575], [-73.26339834138749, -39.80990882075598], [-73.26344212206726, -39.809914314959045], [-73.26355501402001, -39.809916004919934], [-73.2637432890153, -39.80991398431016], [-73.2638506394811, -39.80988655830501], [-73.2640523098372, -39.809850866150754], [-73.26412178609256, -39.80983255068024], [-73.26413445132383, -39.80982790141693], [-73.26429428757683, -39.80970932339492], [-73.26431444131849, -39.80965639826489], [-73.26429409980538, -39.80946738110303], [-73.26423430282914, -39.80935035540239], [-73.26413279444792, -39.80914560728268], [-73.26404115274582, -39.809047460105816], [-73.26383394330531, -39.80905403661982], [-73.26365468410575, -39.80919651724541], [-73.26345301549436, -39.80923220874898], [-73.26327740754355, -39.80922957975648], [-73.26325232069533, -39.80922920416445], [-73.26308249743039, -39.809246016641055], [-73.26295840266457, -39.809190931790866], [-73.26283144623584, -39.80900031785209], [-73.26273511814242, -39.808839195210375], [-73.26269097284194, -39.808848211651885]]]]}}, {"type": "Feature", "properties": {"id": "buda", "nombre": "Humedal El Buda"}, "geometry": {"type": "MultiPolygon", "coordinates": [[[[-73.26281747177913, -39.80818477251149], [-73.26278244511428, -39.80814311825155], [-73.26273836115926, -39.80814971623878], [-73.26267955713529, -39.80818028770312], [-73.26264261237874, -39.80821481561662], [-73.26262366035918, -39.80828227483015], [-73.26263012974492, -39.80833680810841], [-73.26266635895315, -39.80839299679274], [-73.26269904146005, -39.80840316384565], [-73.26277309851751, -39.808389756566065], [-73.26284450683474, -39.80835695441394], [-73.26285455360103, -39.808331701218904], [-73.2628550863101, -39.80824824006945], [-73.26281747177913, -39.80818477251149]]]]}}, {"type": "Feature", "properties": {"id": "hualve", "nombre": "Hualve"}, "geometry": {"type": "MultiPolygon", "coordinates": [[[[-73.260788264339, -39.804206287274674], [-73.26086614959709, -39.80452194205228], [-73.26126464920829, -39.80467584872019], [-73.26251100246617, -39.80567522621873], [-73.26275957948819, -39.80560446531244], [-73.26216360381265, -39.804983116391185], [-73.26099953134216, -39.804125660250634], [-73.26092581533187, -39.80364454849852], [-73.26103080055215, -39.802884732343244], [-73.26135279690081, -39.802028856885784], [-73.26147890616939, -39.801707983651895], [-73.2618805725826, -39.80130951390812], [-73.26192639135353, -39.801194336657105], [-73.26198168548075, -39.801128957234134], [-73.26193014137213, -39.80104542517465], [-73.26176413089108, -39.80103362733905], [-73.26144374394855, -39.801187104407184], [-73.2611627968155, -39.80126565342569], [-73.26089913090465, -39.80150998043333], [-73.26058401226405, -39.80209285049826], [-73.26045226802609, -39.80263708962805], [-73.26052743952079, -39.803060291708086], [-73.26060603981128, -39.803773204330255], [-73.260788264339, -39.804206287274674]]]]}}, {"type": "Feature", "properties": {"id": "humedal-rotonda", "nombre": "Humedal La Rotonda"}, "geometry": {"type": "MultiPolygon", "coordinates": [[[[-73.25759920412759, -39.80936815479621], [-73.25754651054415, -39.80933012144448], [-73.25747626442057, -39.809349756173845], [-73.25748310814062, -39.809397445788875], [-73.25750583307801, -39.80945364992904], [-73.25759603619268, -39.80959983429263], [-73.25766809449915, -39.80972091815096], [-73.25774361813349, -39.809811019135296], [-73.25780040392284, -39.809793251081594], [-73.25782305866757, -39.80974600451771], [-73.25777198361855, -39.80964385683151], [-73.25772606320234, -39.80955006250937], [-73.25767256787593, -39.809437533467744], [-73.25759920412759, -39.80936815479621]]]]}}, {"type": "Feature", "properties": {"id": "laguna-los-patos", "nombre": "Laguna de los Patos"}, "geometry": {"type": "MultiPolygon", "coordinates": [[[[-73.25629117071394, -39.80972975963252], [-73.25626858013098, -39.809734139044835], [-73.2562605606638, -39.80973565988436], [-73.25624071572695, -39.809741927126744], [-73.25622625165587, -39.8097458131699], [-73.25620908678125, -39.80975130000016], [-73.25619883617306, -39.80975689076798], [-73.25618703143105, -39.80976081678296], [-73.25617729195223, -39.80976723592702], [-73.2561723911105, -39.809771676072884], [-73.25616587393263, -39.80977691261474], [-73.25615451811377, -39.80978412815291], [-73.25613309828749, -39.80978955100677], [-73.25610854946088, -39.809792464733604], [-73.25609578465047, -39.80979227283372], [-73.25606591715047, -39.80979510659275], [-73.25604563362455, -39.8097976740827], [-73.2560311902677, -39.80980073971826], [-73.25601416015103, -39.80980089403139], [-73.25599718187573, -39.809798997385265], [-73.25598654453334, -39.809798837458544], [-73.25597846284279, -39.80980281942634], [-73.25596667881801, -39.80980592503574], [-73.25595483258105, -39.80981149179196], [-73.25594726201732, -39.809816302136674], [-73.25594246743572, -39.809816537811194], [-73.2559367109805, -39.809817990065476], [-73.25593093897204, -39.80982005760649], [-73.25592665552001, -39.80982112165964], [-73.2559242621173, -39.80982108567474], [-73.25591840898514, -39.809821100259285], [-73.25591464443917, -39.80982268504781], [-73.25591165177201, -39.80982530730961], [-73.25590931356997, -39.80982834975853], [-73.25590924617275, -39.809831016002164], [-73.25590793541427, -39.80983551011415], [-73.25590364159211, -39.80983698435773], [-73.25589750956385, -39.809837507681976], [-73.25588949785401, -39.80983872085188], [-73.25588080316396, -39.80984064185999], [-73.25587006990219, -39.809844276192166], [-73.25586269451045, -39.80984662738244], [-73.25585047009609, -39.80985136774729], [-73.25584132465676, -39.809855333711205], [-73.25583620451529, -39.809857923982776], [-73.25583196329528, -39.80986257920555], [-73.2558276409543, -39.80986518147234], [-73.25581987016794, -39.80986475687104], [-73.25581570412437, -39.80986643820622], [-73.25581076010035, -39.809869954406004], [-73.25580751056664, -39.80987221374897], [-73.25580140224413, -39.80987443010682], [-73.25579563281944, -39.80987639509305], [-73.25579298811704, -39.809878407062946], [-73.25577910587172, -39.80988558457605], [-73.2557608564538, -39.80989187572627], [-73.2557435463305, -39.80990310516395], [-73.25573051188485, -39.80991357819684], [-73.25572175311919, -39.80992329482644], [-73.25571854117125, -39.8099240672234], [-73.25570433928105, -39.80993862617068], [-73.25568688395443, -39.80995559827719], [-73.25568248382572, -39.80996127697283], [-73.25566838562303, -39.809971734002616], [-73.25565645637126, -39.80998058225717], [-73.25564667533122, -39.80998864211972], [-73.25563480829672, -39.80999502922436], [-73.25561756035069, -39.81000379749452], [-73.25560886378146, -39.81001105296736], [-73.25560337916397, -39.81001753604594], [-73.25560300581893, -39.810032302930864], [-73.25560377917706, -39.81004380428209], [-73.25558651047322, -39.810053392929696], [-73.25556924176465, -39.81006298157461], [-73.25555626948808, -39.810070993439005], [-73.25554217124377, -39.810081450452365], [-73.25552160759463, -39.810095093011405], [-73.25551835415168, -39.81009750616747], [-73.25550429738146, -39.81010632241107], [-73.25546120851244, -39.81012701245648], [-73.25543636913366, -39.8101414113914], [-73.25541570172739, -39.810159155842676], [-73.25538546065293, -39.81017675630519], [-73.25536600217328, -39.810188774068756], [-73.25535292612732, -39.81020088782102], [-73.25534416727155, -39.8102106044197], [-73.25533221719222, -39.8102202730211], [-73.25532662880772, -39.81023085799718], [-73.25531993519095, -39.810243067738654], [-73.25531968625187, -39.810252912326746], [-73.2553610476792, -39.81025845857385], [-73.25539742231253, -39.81025079869711], [-73.25543273319738, -39.81024312281085], [-73.25547970373613, -39.81023726365168], [-73.25554569714588, -39.810236614713816], [-73.2555926261889, -39.810232396273506], [-73.25563957596799, -39.81022735743161], [-73.2556886739626, -39.810221530179234], [-73.25571226291771, -39.81021449863724], [-73.25573372070278, -39.81021810407163], [-73.25575265394711, -39.81021633702815], [-73.25577164940917, -39.81021210883393], [-73.25580629205072, -39.81019929344546], [-73.25581611976607, -39.810189387709194], [-73.25582319998826, -39.810182928612114], [-73.25584200208746, -39.81017582506845], [-73.25586289018581, -39.81017039427481], [-73.25587780328259, -39.810169797806935], [-73.25589856694857, -39.810169289302365], [-73.25592150993849, -39.810166761824426], [-73.25593432666085, -39.81016490278842], [-73.2559454959293, -39.81016507071775], [-73.2559513050238, -39.81016679944556], [-73.25595761488263, -39.810169766743584], [-73.25596022238933, -39.8101718576829], [-73.2559649677448, -39.81017357041695], [-73.25598873964454, -39.810169824346495], [-73.25599336422364, -39.810165790402685], [-73.25599887992261, -39.8101580767313], [-73.25600854689567, -39.810154528943514], [-73.25602080063912, -39.81015389247551], [-73.2560343254857, -39.81014506817195], [-73.25605461948267, -39.810142090495034], [-73.2560938104065, -39.810138781384374], [-73.25611646152636, -39.81013727534789], [-73.2561345450984, -39.81013754720439], [-73.256155996136, -39.810130893778805], [-73.25616458899079, -39.81012774017781], [-73.25624538856322, -39.81010966849049], [-73.25628501644664, -39.81009959515431], [-73.25630420521568, -39.81009824220866], [-73.25635563787502, -39.81008424282231], [-73.25638992630336, -39.81007490988515], [-73.25644757550923, -39.810067569454496], [-73.25649663187225, -39.8100633826217], [-73.25655444689987, -39.81004947907429], [-73.25659401251824, -39.81004186677945], [-73.25663251439012, -39.81003423848405], [-73.25666780431078, -39.810027382599024], [-73.25671896738324, -39.81002404802731], [-73.25675335937468, -39.810010613065906], [-73.25678232902752, -39.81000120008173], [-73.25680921265138, -39.809990114353624], [-73.25684149786078, -39.80997582701172], [-73.25686652343327, -39.809954044320286], [-73.25687972352823, -39.80993700809167], [-73.25689290289057, -39.80992079224446], [-73.25691696831875, -39.80989489164128], [-73.25693980418968, -39.80987553811343], [-73.25695396436075, -39.80986261977496], [-73.25695735763848, -39.80985466899121], [-73.2569523912891, -39.809840642559024], [-73.25694579825091, -39.8098278227254], [-73.25694179201402, -39.80981791419228], [-73.25693557540683, -39.80981125522344], [-73.25693206995153, -39.80980258525666], [-73.2569259362486, -39.80979264475489], [-73.25691926031739, -39.8097831064523], [-73.25690519006173, -39.80977140530182], [-73.25689792009084, -39.80976432015521], [-73.25688395347245, -39.809748517086774], [-73.25686878840679, -39.80973803052224], [-73.25684981737265, -39.80973076954146], [-73.25682718545504, -39.80972099146102], [-73.25678923304581, -39.80970687967469], [-73.25676425604152, -39.80970568363368], [-73.25674731922003, -39.80970214633131], [-73.25669572816206, -39.80970137101274], [-73.25666852005347, -39.80970424489385], [-73.25664194745347, -39.80970302484689], [-73.25660839840194, -39.8097041620276], [-73.25657269078896, -39.809706497798416], [-73.25655080134013, -39.80970945158822], [-73.25652794144212, -39.80970869766285], [-73.25651040021043, -39.80970802367256], [-73.25648690479382, -39.80971136365986], [-73.25646291897036, -39.80971305488234], [-73.2564442518119, -39.80971482604244], [-73.25642350901468, -39.809714514264904], [-73.25641287168291, -39.809714354377554], [-73.25639106515304, -39.80971402660544], [-73.25637400395864, -39.80971541154623], [-73.25635477383285, -39.80971840527158], [-73.25634039270228, -39.80971900979777], [-73.25632699237448, -39.80972291184317], [-73.25630776224482, -39.80972590556065], [-73.25629117071394, -39.80972975963252]]]]}}]}